INTELSAT 26 (IS-26)     
1 24732U 97007A   20128.93956271 -.00000006  00000-0  00000-0 0  9993
2 24732   8.9859  43.2239 0008081   4.8394 220.0340  1.00273549 50363
GALAXY 25 (G-25)        
1 24812U 97026A   20129.14763398  .00000146  00000-0  00000-0 0  9997
2 24812   1.8303  90.7184 0002968 318.0703 263.6412  1.00272398 84008
INTELSAT 5 (IS-5)       
1 24916U 97046A   20129.22700015  .00000081  00000-0  00000-0 0  9998
2 24916   5.6304  65.7798 0003743   0.9518 104.4851  1.00273534 83250
INTELSAT 805 (IS-805)   
1 25371U 98037A   20129.27513282 -.00000118  00000-0  00000-0 0  9990
2 25371   2.3633  88.0521 0008334  91.7339 324.3715  0.99480537 80177
GALAXY 11 (G-11)        
1 26038U 99071A   20129.28260341 -.00000171  00000-0  00000-0 0  9995
2 26038   1.1111  96.9244 0000183 226.9013 271.3795  1.00270919 74717
INTELSAT 9 (IS-9)       
1 26451U 00043A   20129.18559780 -.00000296  00000-0  00000-0 0  9990
2 26451   5.6198  65.9885 0003098 343.8459 193.4643  1.00271011 21776
INTELSAT 12 (IS-12)     
1 26590U 00068A   20129.15391498  .00000004  00000-0  00000+0 0  9993
2 26590   2.8396  86.5332 0006371 348.7481 270.7901  1.00271856 71432
INTELSAT 1R (IS-1R)     
1 26608U 00072A   20129.26127806 -.00000147  00000-0  00000-0 0  9990
2 26608   2.6446  86.5358 0000408 211.8985 179.2737  1.00272498 18959
INTELSAT 10 (IS-10)     
1 26766U 01019A   20129.07871762  .00000115  00000-0  00000+0 0  9996
2 26766   3.8023  79.2312 0002762 346.9674 236.0025  1.00273054 69550
INTELSAT 901 (IS-901)   
1 26824U 01024A   20129.23220279 -.00000212  00000-0  00000-0 0  9996
2 26824   0.0671  77.2489 0001627  52.9265 152.4423  1.00269824   676
INTELSAT 902 (IS-902)   
1 26900U 01039A   20129.41822873 -.00000292  00000-0  00000+0 0  9992
2 26900   0.5242  96.9473 0005739 247.7996 342.4243  1.00270475 68404
DIRECTV 4S              
1 26985U 01052A   20129.20625653 -.00000262  00000-0  00000-0 0  9992
2 26985   0.6114  95.2070 0006295 317.4120 214.8839  0.99265646 28920
INTELSAT 904 (IS-904)   
1 27380U 02007A   20129.20695440 -.00000223  00000-0  00000-0 0  9991
2 27380   1.3650  93.6613 0003173 324.9222 212.9079  1.00271668 29397
INTELSAT 903 (IS-903)   
1 27403U 02016A   20129.46758542  .00000013  00000-0  00000+0 0  9993
2 27403   2.1496  88.6261 0002536 277.1151 288.3793  0.99029748 66270
DIRECTV 5 (TEMPO 1)     
1 27426U 02023A   20129.38878300 -.00000066  00000-0  00000+0 0  9991
2 27426   0.0185 277.0282 0003611 129.1421 210.3443  1.00270770 65941
INTELSAT 905 (IS-905)   
1 27438U 02027A   20129.20800123 -.00000193  00000-0  00000-0 0  9999
2 27438   1.1852  94.5810 0002908 307.4030 234.9023  1.00272097 29008
GALAXY 3C (G-3C)        
1 27445U 02030A   20129.25469569 -.00000160  00000-0  00000-0 0  9995
2 27445   0.0161 298.9219 0001984  24.9700 259.3047  1.00271017 24135
INTELSAT 906 (IS-906)   
1 27513U 02041A   20129.15604979  .00000005  00000-0  00000+0 0  9994
2 27513   0.1886 101.5321 0002069 309.8722 295.3633  1.00271842 64594
INTELSAT 907 (IS-907)   
1 27683U 03007A   20129.23324442 -.00000212  00000-0  00000-0 0  9990
2 27683   0.1341  92.7093 0003104 330.9593 219.2209  1.00271712 63068
GALAXY 12 (G-12)        
1 27715U 03013B   20129.47618694  .00000049  00000-0  00000+0 0  9990
2 27715   1.4017  92.8893 0002205 320.2073 216.0831  1.00271507 62633
GALAXY 23 (G-23)        
1 27854U 03034A   20129.16445385  .00000003  00000-0  00000+0 0  9998
2 27854   0.0182 272.1119 0002971 135.6053 116.9565  1.00273389 66170
GALAXY 13 (HORIZONS 1)  
1 27954U 03044A   20129.23294978  .00000039  00000-0  00000+0 0  9997
2 27954   0.0311 109.1886 0000629  67.3303   6.8319  1.00269662 60786
DIRECTV 7S              
1 28238U 04016A   20129.16540727 -.00000008  00000-0  00000+0 0  9998
2 28238   0.0266 275.7563 0003371 135.5115 115.6541  1.00268805 58689
INTELSAT 10-02          
1 28358U 04022A   20129.21262473 -.00000021  00000-0  00000-0 0  9999
2 28358   0.0136 288.9486 0003396 119.7371 253.3738  1.00270733 58280
XM-3 (RHYTHM)           
1 28626U 05008A   20129.25991233 -.00000215  00000-0  00000-0 0  9994
2 28626   0.0009  68.4387 0000357  17.1775 149.3740  1.00270784 20250
SPACEWAY 1              
1 28644U 05015A   20129.13672949 -.00000212  00000-0  00000+0 0  9995
2 28644   1.0199  93.9522 0003602 356.7274 163.1327  0.98491299 55128
DIRECTV 8               
1 28659U 05019A   20129.25107344 -.00000125  00000-0  00000-0 0  9994
2 28659   0.0141 285.2754 0003237 120.2328 170.6509  1.00271496 54775
GALAXY 28 (G-28)        
1 28702U 05022A   20129.25878163 -.00000195  00000-0  00000-0 0  9998
2 28702   0.0067 172.0754 0002280 225.2473 193.3813  1.00270467 29744
GALAXY 14 (G-14)        
1 28790U 05030A   20129.16172351  .00000027  00000-0  00000+0 0  9992
2 28790   0.0119  46.8149 0002686 357.3314 115.5223  1.00268104 53930
GALAXY 15 (G-15)        
1 28884U 05041A   20129.15628766  .00000069  00000-0  00000+0 0  9999
2 28884   0.0135 287.9112 0001630 118.6965 103.0920  1.00270951 53252
SPACEWAY 2              
1 28903U 05046B   20129.24222552  .00000094  00000-0  00000-0 0  9998
2 28903   0.1164  88.0096 0000778 319.7692 127.0563  1.00271762 28972
GALAXY 16 (G-16)        
1 29236U 06023A   20129.25198240 -.00000136  00000-0  00000-0 0  9999
2 29236   0.0105 101.3781 0002937 313.7822 163.0900  1.00272254 50858
DIRECTV 9S              
1 29494U 06043A   20129.25018319 -.00000123  00000-0  00000-0 0  9991
2 29494   0.0179 196.5446 0003370 217.0734 161.7716  1.00271974 29033
XM-4 (BLUES)            
1 29520U 06049A   20129.45768874 -.00000032  00000-0  00000+0 0  9995
2 29520   0.0047  28.5120 0000355  34.1148 213.6041  1.00268803 49629
GALAXY 17 (G-17)        
1 31307U 07016B   20129.25738604 -.00000184  00000-0  00000-0 0  9991
2 31307   0.0571  84.1157 0003822 335.3132 168.7727  1.00270982 47581
DIRECTV 10              
1 31862U 07032A   20129.24135420 -.00000113  00000-0  00000-0 0  9993
2 31862   0.0042 355.9198 0000104 146.7474  67.9932  1.00270636 23248
SPACEWAY 3              
1 32018U 07036A   20129.50396119 -.00000161  00000-0  00000+0 0  9996
2 32018   0.0052  36.5539 0000176 315.9532 320.7581  1.00271047 46756
INTELSAT 11 (IS-11)     
1 32253U 07044B   20129.20433733 -.00000278  00000-0  00000-0 0  9997
2 32253   0.0156 258.3958 0001647 146.8472 211.8210  1.00271003 46233
HORIZONS 2              
1 32388U 07063B   20129.54176154 -.00000192  00000-0  00000+0 0  9999
2 32388   0.0053 340.9399 0003262  71.3867  94.3757  1.00272012 45511
DIRECTV 11              
1 32729U 08013A   20129.25198226 -.00000135  00000-0  00000-0 0  9994
2 32729   0.0065  56.3236 0000223 345.1080 176.6435  1.00270365 23224
GALAXY 18 (G-18)        
1 32951U 08024A   20129.23563378  .00000016  00000-0  00000-0 0  9992
2 32951   0.0139 281.3538 0003376 132.3304 134.6544  1.00271424 23520
INTELSAT 25 (IS-25)     
1 33153U 08034A   20129.42189263 -.00000234  00000-0  00000+0 0  9998
2 33153   0.0153 187.1133 0001783 168.0678 351.8953  1.00270919 43274
GALAXY 19 (G-19)        
1 33376U 08045A   20129.25380196 -.00000148  00000-0  00000-0 0  9991
2 33376   0.0158 279.4120 0003200 128.3085 173.1802  1.00270624 42577
SIRIUS FM-5             
1 35493U 09034A   20129.50365966 -.00000210  00000-0  00000+0 0  9997
2 35493   0.0176 296.2930 0001270  97.9359 287.7275  1.00271723 39602
INTELSAT 14 (IS-14)     
1 36097U 09064A   20129.20390115 -.00000283  00000-0  00000-0 0  9993
2 36097   0.0191 253.9848 0002798 155.8496 205.0579  1.00271687 38338
INTELSAT 15 (IS-15)     
1 36106U 09067A   20129.41368866 -.00000195  00000-0  00000+0 0  9999
2 36106   0.0128 296.1743 0002467 113.1939  51.3995  1.00271796 38238
DIRECTV 12              
1 36131U 09075A   20129.24927774 -.00000112  00000-0  00000-0 0  9996
2 36131   0.0129 232.3519 0000276 182.8745 158.2528  1.00271672 24220
INTELSAT 16 (IS-16)     
1 36397U 10006A   20129.26510631 -.00000254  00000-0  00000-0 0  9995
2 36397   0.0169 289.2454 0002215 119.2197 197.3198  1.00272152 37491
XM-5                    
1 37185U 10053A   20129.25991203 -.00000214  00000-0  00000-0 0  9996
2 37185   0.0194 285.2980 0002453 118.7822 190.8158  1.00272631 35133
INTELSAT 17 (IS-17)     
1 37238U 10065B   20129.15426391 -.00000012  00000-0  00000-0 0  9994
2 37238   0.0157 255.7494 0002482 149.6571 302.5693  1.00272011 31065
INTELSAT NEW DAWN       
1 37392U 11016A   20129.14763398  .00000146  00000-0  00000-0 0  9999
2 37392   0.0373 129.3842 0000294 300.3606 242.6632  1.00270663 30936
INTELSAT 18 (IS-18)     
1 37834U 11056A   20129.27585806  .00000043  00000-0  00000-0 0  9990
2 37834   0.0207 267.5536 0003379 155.8916  82.4146  1.00269582 31560
INTELSAT 22 (IS-22)     
1 38098U 12011A   20129.15548522 -.00000068  00000-0  00000+0 0  9993
2 38098   0.0062 170.9552 0002471 249.0992 294.4665  1.00271816 29683
INTELSAT 19 (IS-19)     
1 38356U 12030A   20129.17415370 -.00000066  00000-0  00000-0 0  9996
2 38356   0.0181 287.3882 0003080 123.7098  44.0619  1.00270715 28092
INTELSAT 20 (IS-20)     
1 38740U 12043A   20129.51364773 -.00000034  00000-0  00000+0 0  9999
2 38740   0.0242 151.1474 0001623  45.4722 283.5917  1.00269639 28462
INTELSAT 21 (IS-21)     
1 38749U 12045A   20129.48843655 -.00000295  00000-0  00000+0 0  9996
2 38749   0.0129 250.8505 0002376 152.7634 300.9934  1.00271498 28275
INTELSAT 23 (IS-23)     
1 38867U 12057A   20129.42568466 -.00000295  00000-0  00000+0 0  9998
2 38867   0.0139 283.8236 0002113 116.9149 286.1993  1.00272822 27738
SIRIUS FM-6             
1 39360U 13058A   20129.24019980 -.00000027  00000-0  00000-0 0  9995
2 39360   0.0227 291.4088 0000930 325.6314 299.8075  1.00273219 23798
INTELSAT 30 (IS-30)     
1 40271U 14062A   20129.25469528 -.00000160  00000-0  00000-0 0  9990
2 40271   0.0199 283.5834 0001744 164.9390 134.6445  1.00271461 20265
INTELSAT 34 (IS-34)     
1 40874U 15039A   20129.42406560 -.00000295  00000-0  00000+0 0  9998
2 40874   0.0261 271.9049 0000381  45.0016   6.9569  1.00269797 17299
INTELSAT 31 (IS-31)     
1 41581U 16035A   20129.26898712 -.00000160  00000-0  00000-0 0  9999
2 41581   0.0129 250.4691 0002364 313.7584  24.1022  1.00270330 14277
INTELSAT 36 (IS-36)     
1 41747U 16053A   20129.51364773 -.00000034  00000-0  00000+0 0  9995
2 41747   0.0134 343.9411 0001306  24.5785 111.6704  1.00270497 13597
INTELSAT 33E (IS-33E)   
1 41748U 16053B   20129.15604979  .00000039  00000-0  00000-0 0  9996
2 41748   0.0436  44.7076 0002286  13.4348 284.4692  1.00271862 13879
INTELSAT 32E (IS-32E)   
1 41945U 17007B   20129.34784042 -.00000279  00000-0  00000+0 0  9992
2 41945   0.0128 295.8865 0000308 116.8687 255.9097  1.00269743 11873
INTELSAT 35E (IS-35E)   
1 42818U 17041A   20129.20599480 -.00000247  00000-0  00000-0 0  9991
2 42818   0.0230 211.0762 0002538 203.6568 211.4270  1.00271115 10508
INTELSAT 37E (IS-37E)   
1 42950U 17059A   20129.20930977 -.00000150  00000-0  00000-0 0  9990
2 42950   0.0151 290.2738 0002794 129.3910 224.1822  1.00273226  9684
AZERSPACE 2 (IS-38)     
1 43632U 18074A   20129.27861885  .00000127  00000-0  00000+0 0  9996
2 43632   0.0017 197.4377 0001586 206.5057 328.0368  1.00269931  6132
HORIZONS 3E             
1 43633U 18074B   20129.39013875 -.00000040  00000-0  00000+0 0  9993
2 43633   0.0026  31.0215 0000204 354.4071 150.6807  1.00271948  5971
INTELSAT 39 (IS-39)     
1 44476U 19049B   20129.15604979  .00000023  00000-0  00000-0 0  9998
2 44476   0.0125 282.2232 0000298  30.7765  31.5602  1.00273489  2815
